[{"OBJECT_NAME":"STARLINK-35633","OBJECT_ID":"2025-240S","EPOCH":"2026-03-09T06:10:18.996384","MEAN_MOTION":15.30186772,"ECCENTRICITY":0.00014847,"INCLINATION":53.1605,"RA_OF_ASC_NODE":64.7039,"ARG_OF_PERICENTER":115.4098,"MEAN_ANOMALY":244.7056,"EPHEMERIS_TYPE":0,"CLASSIFICATION_TYPE":"U","NORAD_CAT_ID":66162,"ELEMENT_SET_NO":999,"REV_AT_EPOCH":2192,"BSTAR":0.00045942391,"MEAN_MOTION_DOT":0.00013266,"MEAN_MOTION_DDOT":0},{"OBJECT_NAME":"KUIPER-00177","OBJECT_ID":"2026-030C","EPOCH":"2026-03-09T22:40:13.687104","MEAN_MOTION":15.35467467,"ECCENTRICITY":0.00021592,"INCLINATION":51.8837,"RA_OF_ASC_NODE":217.7875,"ARG_OF_PERICENTER":172.5497,"MEAN_ANOMALY":187.5522,"EPHEMERIS_TYPE":0,"CLASSIFICATION_TYPE":"U","NORAD_CAT_ID":67766,"ELEMENT_SET_NO":999,"REV_AT_EPOCH":513,"BSTAR":-0.015747205,"MEAN_MOTION_DOT":-0.00515419,"MEAN_MOTION_DDOT":0}]
